{"type": "FeatureCollection", "features": [ {"type": "Feature", "properties": {"norad_id": 30396, "name": "FENGYUN 1C DEB", "group": "fengyun-1c-debris", "lat": -50.27104759051447, "lon": -0.41917118507074863, "alt_km": 1043.4501968809054, "timestamp": "2025-12-10T11:33:53.661476+00:00", "meta": {"OBJECT_NAME": "FENGYUN 1C DEB", "OBJECT_ID": "1999-025ADK", "EPOCH": "2025-12-09T23:50:05.421984", "MEAN_MOTION": 13.87167499, "ECCENTRICITY": 0.0134917, "INCLINATION": 98.224, "RA_OF_ASC_NODE": 349.1291, "ARG_OF_PERICENTER": 137.2722, "MEAN_ANOMALY": 252.2431, "EPHEMERIS_TYPE": 0, "CLASSIFICATION_TYPE": "U", "NORAD_CAT_ID": 30396, "ELEMENT_SET_NO": 999, "REV_AT_EPOCH": 95541, "BSTAR": 0.00015541, "MEAN_MOTION_DOT": 1.61e-06, "MEAN_MOTION_DDOT": 0}, "tle": {"line1": "1 30396U 99025ADK 25343.99311831  .00000161  00000+0  15541-3 0  9994", "line2": "2 30396  98.2240 349.1291 0134917 137.2722 252.2431 13.87167499955414"}}, "geometry": {"type": "Point", "coordinates": [-0.41917118507074863, -50.27104759051447]}}, {"type": "Feature", "properties": {"norad_id": 30397, "name": "FENGYUN 1C DEB", "group": "fengyun-1c-debris", "lat": 75.30019500775329, "lon": -12.818557430985528, "alt_km": 782.7322356798413, "timestamp": "2025-12-10T11:33:53.661486+00:00", "meta": {"OBJECT_NAME": "FENGYUN 1C DEB", "OBJECT_ID": "1999-025ADL", "EPOCH": "2025-12-09T09:35:23.031168", "MEAN_MOTION": 13.98572113, "ECCENTRICITY": 0.01497434, "INCLINATION": 98.4062, "RA_OF_ASC_NODE": 131.8797, "ARG_OF_PERICENTER": 101.9571, "MEAN_ANOMALY": 313.8286, "EPHEMERIS_TYPE": 0, "CLASSIFICATION_TYPE": "U", "NORAD_CAT_ID": 30397, "ELEMENT_SET_NO": 999, "REV_AT_EPOCH": 95718, "BSTAR": 0.0016727347, "MEAN_MOTION_DOT": 2.603e-05, "MEAN_MOTION_DDOT": 0}, "tle": {"line1": "1 30397U 99025ADL 25343.39957212  .00002603  00000+0  16727-2 0  9997", "line2": "2 30397  98.4062 131.8797 0149743 101.9571 313.8286 13.98572113957182"}}, "geometry": {"type": "Point", "coordinates": [-12.818557430985528, 75.30019500775329]}}, {"type": "Feature", "properties": {"norad_id": 30398, "name": "FENGYUN 1C DEB", "group": "fengyun-1c-debris", "lat": -39.04891683228656, "lon": -111.06416126457249, "alt_km": 854.1000466407504, "timestamp": "2025-12-10T11:33:53.661496+00:00", "meta": {"OBJECT_NAME": "FENGYUN 1C DEB", "OBJECT_ID": "1999-025ADM", "EPOCH": "2025-12-09T16:43:14.290752", "MEAN_MOTION": 13.78693158, "ECCENTRICITY": 0.0172926, "INCLINATION": 99.7141, "RA_OF_ASC_NODE": 240.1445, "ARG_OF_PERICENTER": 303.995, "MEAN_ANOMALY": 80.727, "EPHEMERIS_TYPE": 0, "CLASSIFICATION_TYPE": "U", "NORAD_CAT_ID": 30398, "ELEMENT_SET_NO": 999, "REV_AT_EPOCH": 94715, "BSTAR": 0.00083524, "MEAN_MOTION_DOT": 9e-06, "MEAN_MOTION_DDOT": 0}, "tle": {"line1": "1 30398U 99025ADM 25343.69669318  .00000900  00000+0  83524-3 0  9996", "line2": "2 30398  99.7141 240.1445 0172926 303.9950  80.7270 13.78693158947153"}}, "geometry": {"type": "Point", "coordinates": [-111.06416126457249, -39.04891683228656]}}, {"type": "Feature", "properties": {"norad_id": 30400, "name": "FENGYUN 1C DEB", "group": "fengyun-1c-debris", "lat": -66.9007843773094, "lon": 69.74166885025642, "alt_km": 872.8679037856355, "timestamp": "2025-12-10T11:33:53.661506+00:00", "meta": {"OBJECT_NAME": "FENGYUN 1C DEB", "OBJECT_ID": "1999-025ADP", "EPOCH": "2025-12-08T07:50:43.519776", "MEAN_MOTION": 14.09839617, "ECCENTRICITY": 0.02278529, "INCLINATION": 99.1568, "RA_OF_ASC_NODE": 269.7675, "ARG_OF_PERICENTER": 348.052, "MEAN_ANOMALY": 131.592, "EPHEMERIS_TYPE": 0, "CLASSIFICATION_TYPE": "U", "NORAD_CAT_ID": 30400, "ELEMENT_SET_NO": 999, "REV_AT_EPOCH": 95452, "BSTAR": 0.0059510634, "MEAN_MOTION_DOT": 0.00013297, "MEAN_MOTION_DDOT": 0}, "tle": {"line1": "1 30400U 99025ADP 25342.32689259  .00013297  00000+0  59511-2 0  9996", "line2": "2 30400  99.1568 269.7675 0227852 348.0520 131.5920 14.09839617954521"}}, "geometry": {"type": "Point", "coordinates": [69.74166885025642, -66.9007843773094]}}, {"type": "Feature", "properties": {"norad_id": 30401, "name": "FENGYUN 1C DEB", "group": "fengyun-1c-debris", "lat": 51.825696338355456, "lon": 52.875477600854786, "alt_km": 716.7791924824414, "timestamp": "2025-12-10T11:33:53.661516+00:00", "meta": {"OBJECT_NAME": "FENGYUN 1C DEB", "OBJECT_ID": "1999-025ADQ", "EPOCH": "2025-12-09T21:31:17.721696", "MEAN_MOTION": 14.27987922, "ECCENTRICITY": 0.0107768, "INCLINATION": 98.9474, "RA_OF_ASC_NODE": 220.7165, "ARG_OF_PERICENTER": 135.6769, "MEAN_ANOMALY": 225.3102, "EPHEMERIS_TYPE": 0, "CLASSIFICATION_TYPE": "U", "NORAD_CAT_ID": 30401, "ELEMENT_SET_NO": 999, "REV_AT_EPOCH": 98263, "BSTAR": 0.00020374, "MEAN_MOTION_DOT": 4.92e-06, "MEAN_MOTION_DDOT": 0}, "tle": {"line1": "1 30401U 99025ADQ 25343.89673289  .00000492  00000+0  20374-3 0  9995", "line2": "2 30401  98.9474 220.7165 0107768 135.6769 225.3102 14.27987922982634"}}, "geometry": {"type": "Point", "coordinates": [52.875477600854786, 51.825696338355456]}}, {"type": "Feature", "properties": {"norad_id": 30403, "name": "FENGYUN 1C DEB", "group": "fengyun-1c-debris", "lat": -9.772277237763774, "lon": 64.42195951538987, "alt_km": 782.5889154624774, "timestamp": "2025-12-10T11:33:53.661525+00:00", "meta": {"OBJECT_NAME": "FENGYUN 1C DEB", "OBJECT_ID": "1999-025ADS", "EPOCH": "2025-12-10T04:51:13.040064", "MEAN_MOTION": 14.21498437, "ECCENTRICITY": 0.0074818, "INCLINATION": 99.0591, "RA_OF_ASC_NODE": 62.5605, "ARG_OF_PERICENTER": 30.4345, "MEAN_ANOMALY": 330.1143, "EPHEMERIS_TYPE": 0, "CLASSIFICATION_TYPE": "U", "NORAD_CAT_ID": 30403, "ELEMENT_SET_NO": 999, "REV_AT_EPOCH": 96770, "BSTAR": 0.002494, "MEAN_MOTION_DOT": 5.572e-05, "MEAN_MOTION_DDOT": 0}, "tle": {"line1": "1 30403U 99025ADS 25344.20223426  .00005572  00000+0  24940-2 0  9993", "line2": "2 30403  99.0591  62.5605 0074818  30.4345 330.1143 14.21498437967703"}}, "geometry": {"type": "Point", "coordinates": [64.42195951538987, -9.772277237763774]}}, {"type": "Feature", "properties": {"norad_id": 30404, "name": "FENGYUN 1C DEB", "group": "fengyun-1c-debris", "lat": 38.250471303360804, "lon": 68.48424853666405, "alt_km": 1181.0533391511945, "timestamp": "2025-12-10T11:33:53.661536+00:00", "meta": {"OBJECT_NAME": "FENGYUN 1C DEB", "OBJECT_ID": "1999-025ADT", "EPOCH": "2025-12-09T17:22:00.970176", "MEAN_MOTION": 13.34340356, "ECCENTRICITY": 0.0376217, "INCLINATION": 99.8341, "RA_OF_ASC_NODE": 75.6132, "ARG_OF_PERICENTER": 143.8851, "MEAN_ANOMALY": 218.8323, "EPHEMERIS_TYPE": 0, "CLASSIFICATION_TYPE": "U", "NORAD_CAT_ID": 30404, "ELEMENT_SET_NO": 999, "REV_AT_EPOCH": 57996, "BSTAR": 0.0018982, "MEAN_MOTION_DOT": 1.373e-05, "MEAN_MOTION_DDOT": 0}, "tle": {"line1": "1 30404U 99025ADT 25343.72362234  .00001373  00000+0  18982-2 0  9995", "line2": "2 30404  99.8341  75.6132 0376217 143.8851 218.8323 13.34340356579962"}}, "geometry": {"type": "Point", "coordinates": [68.48424853666405, 38.250471303360804]}}, {"type": "Feature", "properties": {"norad_id": 30405, "name": "FENGYUN 1C DEB", "group": "fengyun-1c-debris", "lat": 70.40963573425333, "lon": -75.7696950566211, "alt_km": 766.073858053317, "timestamp": "2025-12-10T11:33:53.661546+00:00", "meta": {"OBJECT_NAME": "FENGYUN 1C DEB", "OBJECT_ID": "1999-025ADU", "EPOCH": "2025-12-09T23:33:38.040192", "MEAN_MOTION": 14.28877672, "ECCENTRICITY": 0.0051503, "INCLINATION": 98.7938, "RA_OF_ASC_NODE": 77.9439, "ARG_OF_PERICENTER": 161.6348, "MEAN_ANOMALY": 254.916, "EPHEMERIS_TYPE": 0, "CLASSIFICATION_TYPE": "U", "NORAD_CAT_ID": 30405, "ELEMENT_SET_NO": 999, "REV_AT_EPOCH": 97356, "BSTAR": 0.0026154, "MEAN_MOTION_DOT": 6.656e-05, "MEAN_MOTION_DDOT": 0}, "tle": {"line1": "1 30405U 99025ADU 25343.98169028  .00006656  00000+0  26154-2 0  9999", "line2": "2 30405  98.7938  77.9439 0051503 161.6348 254.9160 14.28877672973569"}}, "geometry": {"type": "Point", "coordinates": [-75.7696950566211, 70.40963573425333]}}, {"type": "Feature", "properties": {"norad_id": 30406, "name": "FENGYUN 1C DEB", "group": "fengyun-1c-debris", "lat": -80.99872621077857, "lon": -51.33940155588867, "alt_km": 1051.178372207777, "timestamp": "2025-12-10T11:33:53.661556+00:00", "meta": {"OBJECT_NAME": "FENGYUN 1C DEB", "OBJECT_ID": "1999-025ADV", "EPOCH": "2025-12-09T12:07:57.343584", "MEAN_MOTION": 13.59193496, "ECCENTRICITY": 0.02830968, "INCLINATION": 98.62, "RA_OF_ASC_NODE": 234.5532, "ARG_OF_PERICENTER": 8.191, "MEAN_ANOMALY": 172.8241, "EPHEMERIS_TYPE": 0, "CLASSIFICATION_TYPE": "U", "NORAD_CAT_ID": 30406, "ELEMENT_SET_NO": 999, "REV_AT_EPOCH": 93122, "BSTAR": 0.0035302827, "MEAN_MOTION_DOT": 3.347e-05, "MEAN_MOTION_DDOT": 0}, "tle": {"line1": "1 30406U 99025ADV 25343.50552481  .00003347  00000+0  35303-2 0  9997", "line2": "2 30406  98.6200 234.5532 0283096   8.1910 172.8241 13.59193496931223"}}, "geometry": {"type": "Point", "coordinates": [-51.33940155588867, -80.99872621077857]}}, {"type": "Feature", "properties": {"norad_id": 30409, "name": "FENGYUN 1C DEB", "group": "fengyun-1c-debris", "lat": 16.080714096726457, "lon": -30.44385981053872, "alt_km": 759.9924551422546, "timestamp": "2025-12-10T11:33:53.661566+00:00", "meta": {"OBJECT_NAME": "FENGYUN 1C DEB", "OBJECT_ID": "1999-025ADY", "EPOCH": "2025-12-10T04:55:45.280416", "MEAN_MOTION": 14.0371913, "ECCENTRICITY": 0.0167896, "INCLINATION": 98.4735, "RA_OF_ASC_NODE": 331.7612, "ARG_OF_PERICENTER": 12.6974, "MEAN_ANOMALY": 47.118, "EPHEMERIS_TYPE": 0, "CLASSIFICATION_TYPE": "U", "NORAD_CAT_ID": 30409, "ELEMENT_SET_NO": 999, "REV_AT_EPOCH": 96394, "BSTAR": 0.0013436, "MEAN_MOTION_DOT": 2.355e-05, "MEAN_MOTION_DDOT": 0}, "tle": {"line1": "1 30409U 99025ADY 25344.20538519  .00002355  00000+0  13436-2 0  9995", "line2": "2 30409  98.4735 331.7612 0167896  12.6974  47.1180 14.03719130963944"}}, "geometry": {"type": "Point", "coordinates": [-30.44385981053872, 16.080714096726457]}}]}